{"type": "FeatureCollection", "features": [{"type": "Feature", "properties": {"norad_id": 22490, "name": "SCD 1", "group": "resource", "lat": 22.13964569009885, "lon": -6.001263960459588, "alt_km": 749.6031447475334, "timestamp": "2025-12-10T09:57:44.360665+00:00", "meta": {"OBJECT_NAME": "SCD 1", "OBJECT_ID": "1993-009B", "EPOCH": "2025-12-09T14:32:21.488928", "MEAN_MOTION": 14.45995775, "ECCENTRICITY": 0.004173, "INCLINATION": 24.9704, "RA_OF_ASC_NODE": 298.0332, "ARG_OF_PERICENTER": 291.7211, "MEAN_ANOMALY": 229.7743, "EPHEMERIS_TYPE": 0, "CLASSIFICATION_TYPE": "U", "NORAD_CAT_ID": 22490, "ELEMENT_SET_NO": 999, "REV_AT_EPOCH": 73364, "BSTAR": 0.00017156, "MEAN_MOTION_DOT": 8.13e-06, "MEAN_MOTION_DDOT": 0}, "tle": {"line1": "1 22490U 93009B   25343.60580427  .00000813  00000+0  17156-3 0  9991", "line2": "2 22490  24.9704 298.0332 0041730 291.7211 229.7743 14.45995775733643"}}, "geometry": {"type": "Point", "coordinates": [-6.001263960459588, 22.13964569009885]}}, {"type": "Feature", "properties": {"norad_id": 25397, "name": "TECHSAT 1B (GO-32)", "group": "resource", "lat": 43.63299563215004, "lon": 156.25589659875706, "alt_km": 806.4922369804453, "timestamp": "2025-12-10T09:57:44.360691+00:00", "meta": {"OBJECT_NAME": "TECHSAT 1B (GO-32)", "OBJECT_ID": "1998-043D", "EPOCH": "2025-12-09T21:31:36.423840", "MEAN_MOTION": 14.2437571, "ECCENTRICITY": 0.0002134, "INCLINATION": 98.9917, "RA_OF_ASC_NODE": 327.0435, "ARG_OF_PERICENTER": 61.9016, "MEAN_ANOMALY": 298.2377, "EPHEMERIS_TYPE": 0, "CLASSIFICATION_TYPE": "U", "NORAD_CAT_ID": 25397, "ELEMENT_SET_NO": 999, "REV_AT_EPOCH": 42438, "BSTAR": 8.9466e-05, "MEAN_MOTION_DOT": 1.6e-06, "MEAN_MOTION_DDOT": 0}, "tle": {"line1": "1 25397U 98043D   25343.89694935  .00000160  00000+0  89466-4 0  9993", "line2": "2 25397  98.9917 327.0435 0002134  61.9016 298.2377 14.24375710424381"}}, "geometry": {"type": "Point", "coordinates": [156.25589659875706, 43.63299563215004]}}, {"type": "Feature", "properties": {"norad_id": 25504, "name": "SCD 2", "group": "resource", "lat": 24.585460723401074, "lon": -102.91634041690675, "alt_km": 746.6833833352712, "timestamp": "2025-12-10T09:57:44.360707+00:00", "meta": {"OBJECT_NAME": "SCD 2", "OBJECT_ID": "1998-060A", "EPOCH": "2025-12-09T18:41:38.027040", "MEAN_MOTION": 14.45420959, "ECCENTRICITY": 0.0016592, "INCLINATION": 24.9931, "RA_OF_ASC_NODE": 160.1538, "ARG_OF_PERICENTER": 281.9313, "MEAN_ANOMALY": 100.7711, "EPHEMERIS_TYPE": 0, "CLASSIFICATION_TYPE": "U", "NORAD_CAT_ID": 25504, "ELEMENT_SET_NO": 999, "REV_AT_EPOCH": 43289, "BSTAR": 0.0001259, "MEAN_MOTION_DOT": 6.33e-06, "MEAN_MOTION_DDOT": 0}, "tle": {"line1": "1 25504U 98060A   25343.77891235  .00000633  00000+0  12590-3 0  9999", "line2": "2 25504  24.9931 160.1538 0016592 281.9313 100.7711 14.45420959432896"}}, "geometry": {"type": "Point", "coordinates": [-102.91634041690675, 24.585460723401074]}}, {"type": "Feature", "properties": {"norad_id": 25757, "name": "DLR-TUBSAT", "group": "resource", "lat": 58.876159190983216, "lon": 163.47030238804388, "alt_km": 710.5654922050435, "timestamp": "2025-12-10T09:57:44.360719+00:00", "meta": {"OBJECT_NAME": "DLR-TUBSAT", "OBJECT_ID": "1999-029B", "EPOCH": "2025-12-09T16:52:35.211648", "MEAN_MOTION": 14.52355963, "ECCENTRICITY": 0.0013728, "INCLINATION": 98.656, "RA_OF_ASC_NODE": 328.1233, "ARG_OF_PERICENTER": 202.2533, "MEAN_ANOMALY": 157.8067, "EPHEMERIS_TYPE": 0, "CLASSIFICATION_TYPE": "U", "NORAD_CAT_ID": 25757, "ELEMENT_SET_NO": 999, "REV_AT_EPOCH": 40574, "BSTAR": 8.0486e-05, "MEAN_MOTION_DOT": 2.8e-06, "MEAN_MOTION_DDOT": 0}, "tle": {"line1": "1 25757U 99029B   25343.70318532  .00000280  00000+0  80486-4 0  9990", "line2": "2 25757  98.6560 328.1233 0013728 202.2533 157.8067 14.52355963405749"}}, "geometry": {"type": "Point", "coordinates": [163.47030238804388, 58.876159190983216]}}, {"type": "Feature", "properties": {"norad_id": 25994, "name": "TERRA", "group": "resource", "lat": 66.57262071552557, "lon": -124.93787036498564, "alt_km": 681.3249956201598, "timestamp": "2025-12-10T09:57:44.360731+00:00", "meta": {"OBJECT_NAME": "TERRA", "OBJECT_ID": "1999-068A", "EPOCH": "2025-12-09T19:09:34.428096", "MEAN_MOTION": 14.60897092, "ECCENTRICITY": 0.0003584, "INCLINATION": 97.9752, "RA_OF_ASC_NODE": 35.5908, "ARG_OF_PERICENTER": 100.1248, "MEAN_ANOMALY": 10.0634, "EPHEMERIS_TYPE": 0, "CLASSIFICATION_TYPE": "U", "NORAD_CAT_ID": 25994, "ELEMENT_SET_NO": 999, "REV_AT_EPOCH": 38195, "BSTAR": 0.00017702, "MEAN_MOTION_DOT": 8.22e-06, "MEAN_MOTION_DDOT": 0}, "tle": {"line1": "1 25994U 99068A   25343.79831514  .00000822  00000+0  17702-3 0  9997", "line2": "2 25994  97.9752  35.5908 0003584 100.1248  10.0634 14.60897092381952"}}, "geometry": {"type": "Point", "coordinates": [-124.93787036498564, 66.57262071552557]}}, {"type": "Feature", "properties": {"norad_id": 27004, "name": "MAROC-TUBSAT", "group": "resource", "lat": 41.273869412139554, "lon": -18.463598726027563, "alt_km": 1003.9924390942087, "timestamp": "2025-12-10T09:57:44.360743+00:00", "meta": {"OBJECT_NAME": "MAROC-TUBSAT", "OBJECT_ID": "2001-056D", "EPOCH": "2025-12-09T17:38:08.402208", "MEAN_MOTION": 13.70252674, "ECCENTRICITY": 0.0019088, "INCLINATION": 99.7912, "RA_OF_ASC_NODE": 152.1272, "ARG_OF_PERICENTER": 268.1363, "MEAN_ANOMALY": 115.929, "EPHEMERIS_TYPE": 0, "CLASSIFICATION_TYPE": "U", "NORAD_CAT_ID": 27004, "ELEMENT_SET_NO": 999, "REV_AT_EPOCH": 20024, "BSTAR": 4.6196e-05, "MEAN_MOTION_DOT": -6e-08, "MEAN_MOTION_DDOT": 0}, "tle": {"line1": "1 27004U 01056D   25343.73481947 -.00000006  00000+0  46196-4 0  9991", "line2": "2 27004  99.7912 152.1272 0019088 268.1363 115.9290 13.70252674200249"}}, "geometry": {"type": "Point", "coordinates": [-18.463598726027563, 41.273869412139554]}}, {"type": "Feature", "properties": {"norad_id": 27424, "name": "AQUA", "group": "resource", "lat": -20.42579877202249, "lon": -51.587829624579825, "alt_km": 693.0500353680391, "timestamp": "2025-12-10T09:57:44.360755+00:00", "meta": {"OBJECT_NAME": "AQUA", "OBJECT_ID": "2002-022A", "EPOCH": "2025-12-09T21:02:12.331104", "MEAN_MOTION": 14.61799118, "ECCENTRICITY": 9.79e-05, "INCLINATION": 98.4034, "RA_OF_ASC_NODE": 304.7091, "ARG_OF_PERICENTER": 114.1879, "MEAN_ANOMALY": 272.7648, "EPHEMERIS_TYPE": 0, "CLASSIFICATION_TYPE": "U", "NORAD_CAT_ID": 27424, "ELEMENT_SET_NO": 999, "REV_AT_EPOCH": 25561, "BSTAR": 0.0003959, "MEAN_MOTION_DOT": 1.927e-05, "MEAN_MOTION_DDOT": 0}, "tle": {"line1": "1 27424U 02022A   25343.87653161  .00001927  00000+0  39590-3 0  9996", "line2": "2 27424  98.4034 304.7091 0000979 114.1879 272.7648 14.61799118255611"}}, "geometry": {"type": "Point", "coordinates": [-51.587829624579825, -20.42579877202249]}}, {"type": "Feature", "properties": {"norad_id": 28051, "name": "IRS-P6 (RESOURCESAT-1)", "group": "resource", "lat": 57.42272138273923, "lon": 11.858348285215438, "alt_km": 794.7425990585598, "timestamp": "2025-12-10T09:57:44.360766+00:00", "meta": {"OBJECT_NAME": "IRS-P6 (RESOURCESAT-1)", "OBJECT_ID": "2003-046A", "EPOCH": "2025-12-10T05:01:49.260288", "MEAN_MOTION": 14.36072917, "ECCENTRICITY": 0.0063989, "INCLINATION": 98.2176, "RA_OF_ASC_NODE": 24.7335, "ARG_OF_PERICENTER": 188.2889, "MEAN_ANOMALY": 248.9191, "EPHEMERIS_TYPE": 0, "CLASSIFICATION_TYPE": "U", "NORAD_CAT_ID": 28051, "ELEMENT_SET_NO": 999, "REV_AT_EPOCH": 15340, "BSTAR": 8.9827e-05, "MEAN_MOTION_DOT": 2.26e-06, "MEAN_MOTION_DDOT": 0}, "tle": {"line1": "1 28051U 03046A   25344.20959792  .00000226  00000+0  89827-4 0  9997", "line2": "2 28051  98.2176  24.7335 0063989 188.2889 248.9191 14.36072917153401"}}, "geometry": {"type": "Point", "coordinates": [11.858348285215438, 57.42272138273923]}}, {"type": "Feature", "properties": {"norad_id": 28220, "name": "SHIYAN-1 (SY-1)", "group": "resource", "lat": -62.52004362024732, "lon": -149.65472735723867, "alt_km": 488.9659730046769, "timestamp": "2025-12-10T09:57:44.360776+00:00", "meta": {"OBJECT_NAME": "SHIYAN-1 (SY-1)", "OBJECT_ID": "2004-012A", "EPOCH": "2025-12-10T04:11:03.635232", "MEAN_MOTION": 15.28033489, "ECCENTRICITY": 0.0005788, "INCLINATION": 97.8933, "RA_OF_ASC_NODE": 45.561, "ARG_OF_PERICENTER": 335.8258, "MEAN_ANOMALY": 24.2708, "EPHEMERIS_TYPE": 0, "CLASSIFICATION_TYPE": "U", "NORAD_CAT_ID": 28220, "ELEMENT_SET_NO": 999, "REV_AT_EPOCH": 18217, "BSTAR": 0.00067493, "MEAN_MOTION_DOT": 0.00018409, "MEAN_MOTION_DDOT": 0}, "tle": {"line1": "1 28220U 04012A   25344.17434763  .00018409  00000+0  67493-3 0  9997", "line2": "2 28220  97.8933  45.5610 0005788 335.8258  24.2708 15.28033489182173"}}, "geometry": {"type": "Point", "coordinates": [-149.65472735723867, -62.52004362024732]}}, {"type": "Feature", "properties": {"norad_id": 28376, "name": "AURA", "group": "resource", "lat": 60.85118978393329, "lon": 129.83943937404368, "alt_km": 683.4576528275757, "timestamp": "2025-12-10T09:57:44.360787+00:00", "meta": {"OBJECT_NAME": "AURA", "OBJECT_ID": "2004-026A", "EPOCH": "2025-12-10T02:50:57.217920", "MEAN_MOTION": 14.60936441, "ECCENTRICITY": 0.0001196, "INCLINATION": 98.3182, "RA_OF_ASC_NODE": 294.3332, "ARG_OF_PERICENTER": 94.072, "MEAN_ANOMALY": 266.0616, "EPHEMERIS_TYPE": 0, "CLASSIFICATION_TYPE": "U", "NORAD_CAT_ID": 28376, "ELEMENT_SET_NO": 999, "REV_AT_EPOCH": 13860, "BSTAR": 0.00035005, "MEAN_MOTION_DOT": 1.667e-05, "MEAN_MOTION_DDOT": 0}, "tle": {"line1": "1 28376U 04026A   25344.11871780  .00001667  00000+0  35005-3 0  9994", "line2": "2 28376  98.3182 294.3332 0001196  94.0720 266.0616 14.60936441138607"}}, "geometry": {"type": "Point", "coordinates": [129.83943937404368, 60.85118978393329]}}]}